{"type": "FeatureCollection", "features": [ {"type": "Feature", "properties": {"norad_id": 42741, "name": "EUTELSAT 172B", "group": "eutelsat", "lat": 0.005500068202702852, "lon": 177.84230772071123, "alt_km": 35786.087608544614, "timestamp": "2025-12-02T19:35:50.233195+00:00", "meta": {"OBJECT_NAME": "EUTELSAT 172B", "OBJECT_ID": "2017-029B", "EPOCH": "2025-12-02T09:32:38.561856", "MEAN_MOTION": 1.00270978, "ECCENTRICITY": 2.23e-05, "INCLINATION": 0.0165, "RA_OF_ASC_NODE": 133.0464, "ARG_OF_PERICENTER": 122.4326, "MEAN_ANOMALY": 131.1829, "EPHEMERIS_TYPE": 0, "CLASSIFICATION_TYPE": "U", "NORAD_CAT_ID": 42741, "ELEMENT_SET_NO": 999, "REV_AT_EPOCH": 3175, "BSTAR": 0, "MEAN_MOTION_DOT": 1.5e-07, "MEAN_MOTION_DDOT": 0}, "tle": {"line1": "1 42741U 17029B   25336.39766854  .00000015  00000+0  00000+0 0  9998", "line2": "2 42741   0.0165 133.0464 0000223 122.4326 131.1829  1.00270978 31755"}}, "geometry": {"type": "Point", "coordinates": [177.84230772071123, 0.005500068202702852]}}, {"type": "Feature", "properties": {"norad_id": 44334, "name": "EUTELSAT 7C", "group": "eutelsat", "lat": 0.012936714215661456, "lon": 12.867541428937322, "alt_km": 35797.19581477076, "timestamp": "2025-12-02T19:35:50.233207+00:00", "meta": {"OBJECT_NAME": "EUTELSAT 7C", "OBJECT_ID": "2019-034B", "EPOCH": "2025-12-02T05:15:21.542112", "MEAN_MOTION": 1.0027126, "ECCENTRICITY": 0.000345, "INCLINATION": 0.0769, "RA_OF_ASC_NODE": 181.9237, "ARG_OF_PERICENTER": 51.9021, "MEAN_ANOMALY": 283.3354, "EPHEMERIS_TYPE": 0, "CLASSIFICATION_TYPE": "U", "NORAD_CAT_ID": 44334, "ELEMENT_SET_NO": 999, "REV_AT_EPOCH": 486, "BSTAR": 0, "MEAN_MOTION_DOT": 6.9e-07, "MEAN_MOTION_DDOT": 0}, "tle": {"line1": "1 44334U 19034B   25336.21899933  .00000069  00000+0  00000+0 0  9991", "line2": "2 44334   0.0769 181.9237 0003450  51.9021 283.3354  1.00271260  4868"}}, "geometry": {"type": "Point", "coordinates": [12.867541428937322, 0.012936714215661456]}}, {"type": "Feature", "properties": {"norad_id": 44624, "name": "EUTELSAT 5 WEST B", "group": "eutelsat", "lat": 0.05884210181543602, "lon": 0.8992706573378497, "alt_km": 35790.763269839175, "timestamp": "2025-12-02T19:35:50.233219+00:00", "meta": {"OBJECT_NAME": "EUTELSAT 5 WEST B", "OBJECT_ID": "2019-067A", "EPOCH": "2025-12-02T06:54:42.025824", "MEAN_MOTION": 1.00272691, "ECCENTRICITY": 0.0003638, "INCLINATION": 0.0729, "RA_OF_ASC_NODE": 326.0859, "ARG_OF_PERICENTER": 286.0913, "MEAN_ANOMALY": 277.9031, "EPHEMERIS_TYPE": 0, "CLASSIFICATION_TYPE": "U", "NORAD_CAT_ID": 44624, "ELEMENT_SET_NO": 999, "REV_AT_EPOCH": 2246, "BSTAR": 0, "MEAN_MOTION_DOT": -2.1e-07, "MEAN_MOTION_DDOT": 0}, "tle": {"line1": "1 44624U 19067A   25336.28798641 -.00000021  00000+0  00000+0 0  9999", "line2": "2 44624   0.0729 326.0859 0003638 286.0913 277.9031  1.00272691 22463"}}, "geometry": {"type": "Point", "coordinates": [0.8992706573378497, 0.05884210181543602]}}, {"type": "Feature", "properties": {"norad_id": 45027, "name": "EUTELSAT KONNECT", "group": "eutelsat", "lat": -0.04045032352918981, "lon": 13.057688184733033, "alt_km": 35787.98869251045, "timestamp": "2025-12-02T19:35:50.233237+00:00", "meta": {"OBJECT_NAME": "EUTELSAT KONNECT", "OBJECT_ID": "2020-005B", "EPOCH": "2025-12-02T08:40:54.355008", "MEAN_MOTION": 1.00270943, "ECCENTRICITY": 0.0001605, "INCLINATION": 0.0668, "RA_OF_ASC_NODE": 100.4804, "ARG_OF_PERICENTER": 168.2818, "MEAN_ANOMALY": 300.1251, "EPHEMERIS_TYPE": 0, "CLASSIFICATION_TYPE": "U", "NORAD_CAT_ID": 45027, "ELEMENT_SET_NO": 999, "REV_AT_EPOCH": 2235, "BSTAR": 0, "MEAN_MOTION_DOT": 7e-07, "MEAN_MOTION_DDOT": 0}, "tle": {"line1": "1 45027U 20005B   25336.36174022  .00000070  00000+0  00000+0 0  9994", "line2": "2 45027   0.0668 100.4804 0001605 168.2818 300.1251  1.00270943 22353"}}, "geometry": {"type": "Point", "coordinates": [13.057688184733033, -0.04045032352918981]}}, {"type": "Feature", "properties": {"norad_id": 49056, "name": "EUTELSAT QUANTUM", "group": "eutelsat", "lat": 0.029580548808786963, "lon": 53.57833591315369, "alt_km": 35799.465498597885, "timestamp": "2025-12-02T19:35:50.233249+00:00", "meta": {"OBJECT_NAME": "EUTELSAT QUANTUM", "OBJECT_ID": "2021-069B", "EPOCH": "2025-12-02T06:48:38.528064", "MEAN_MOTION": 1.00271277, "ECCENTRICITY": 0.0003691, "INCLINATION": 0.0154, "RA_OF_ASC_NODE": 4.2, "ARG_OF_PERICENTER": 261.1409, "MEAN_ANOMALY": 315.9194, "EPHEMERIS_TYPE": 0, "CLASSIFICATION_TYPE": "U", "NORAD_CAT_ID": 49056, "ELEMENT_SET_NO": 999, "REV_AT_EPOCH": 1595, "BSTAR": 0, "MEAN_MOTION_DOT": 1.47e-06, "MEAN_MOTION_DDOT": 0}, "tle": {"line1": "1 49056U 21069B   25336.28377926  .00000147  00000+0  00000+0 0  9995", "line2": "2 49056   0.0154   4.2000 0003691 261.1409 315.9194  1.00271277 15953"}}, "geometry": {"type": "Point", "coordinates": [53.57833591315369, 0.029580548808786963]}}, {"type": "Feature", "properties": {"norad_id": 53765, "name": "EUTELSAT KONNECT VHTS", "group": "eutelsat", "lat": -0.03156895969497887, "lon": 8.560595351682556, "alt_km": 35795.7322237922, "timestamp": "2025-12-02T19:35:50.233261+00:00", "meta": {"OBJECT_NAME": "EUTELSAT KONNECT VHTS", "OBJECT_ID": "2022-110A", "EPOCH": "2025-12-02T08:39:39.472992", "MEAN_MOTION": 1.00268502, "ECCENTRICITY": 0.0002715, "INCLINATION": 0.0576, "RA_OF_ASC_NODE": 108.477, "ARG_OF_PERICENTER": 120.3305, "MEAN_ANOMALY": 335.2715, "EPHEMERIS_TYPE": 0, "CLASSIFICATION_TYPE": "U", "NORAD_CAT_ID": 53765, "ELEMENT_SET_NO": 999, "REV_AT_EPOCH": 485, "BSTAR": 0, "MEAN_MOTION_DOT": 3.7e-07, "MEAN_MOTION_DDOT": 0}, "tle": {"line1": "1 53765U 22110A   25336.36087353  .00000037  00000+0  00000+0 0  9994", "line2": "2 53765   0.0576 108.4770 0002715 120.3305 335.2715  1.00268502  4859"}}, "geometry": {"type": "Point", "coordinates": [8.560595351682556, -0.03156895969497887]}}, {"type": "Feature", "properties": {"norad_id": 54048, "name": "EUTELSAT HOTBIRD 13F", "group": "eutelsat", "lat": 0.07669260474184943, "lon": 18.86129628822737, "alt_km": 35778.69013798536, "timestamp": "2025-12-02T19:35:50.233272+00:00", "meta": {"OBJECT_NAME": "EUTELSAT HOTBIRD 13F", "OBJECT_ID": "2022-134A", "EPOCH": "2025-12-02T08:42:24.211008", "MEAN_MOTION": 1.00271528, "ECCENTRICITY": 0.0001919, "INCLINATION": 0.0553, "RA_OF_ASC_NODE": 288.4275, "ARG_OF_PERICENTER": 67.0912, "MEAN_ANOMALY": 219.5562, "EPHEMERIS_TYPE": 0, "CLASSIFICATION_TYPE": "U", "NORAD_CAT_ID": 54048, "ELEMENT_SET_NO": 999, "REV_AT_EPOCH": 1140, "BSTAR": 0, "MEAN_MOTION_DOT": 1.08e-06, "MEAN_MOTION_DDOT": 0}, "tle": {"line1": "1 54048U 22134A   25336.36278022  .00000108  00000+0  00000+0 0  9999", "line2": "2 54048   0.0553 288.4275 0001919  67.0912 219.5562  1.00271528 11409"}}, "geometry": {"type": "Point", "coordinates": [18.86129628822737, 0.07669260474184943]}}, {"type": "Feature", "properties": {"norad_id": 54225, "name": "EUTELSAT HOTBIRD 13G", "group": "eutelsat", "lat": 0.04836399017419849, "lon": 18.840083171723276, "alt_km": 35795.037522000006, "timestamp": "2025-12-02T19:35:50.233284+00:00", "meta": {"OBJECT_NAME": "EUTELSAT HOTBIRD 13G", "OBJECT_ID": "2022-146A", "EPOCH": "2025-12-02T08:42:31.699296", "MEAN_MOTION": 1.00270969, "ECCENTRICITY": 0.0002157, "INCLINATION": 0.0484, "RA_OF_ASC_NODE": 239.7787, "ARG_OF_PERICENTER": 304.14, "MEAN_ANOMALY": 31.1819, "EPHEMERIS_TYPE": 0, "CLASSIFICATION_TYPE": "U", "NORAD_CAT_ID": 54225, "ELEMENT_SET_NO": 999, "REV_AT_EPOCH": 549, "BSTAR": 0, "MEAN_MOTION_DOT": 1.08e-06, "MEAN_MOTION_DDOT": 0}, "tle": {"line1": "1 54225U 22146A   25336.36286689  .00000108  00000+0  00000+0 0  9997", "line2": "2 54225   0.0484 239.7787 0002157 304.1400  31.1819  1.00270969  5491"}}, "geometry": {"type": "Point", "coordinates": [18.840083171723276, 0.04836399017419849]}}, {"type": "Feature", "properties": {"norad_id": 54259, "name": "EUTELSAT 10B", "group": "eutelsat", "lat": -0.029089399736438835, "lon": 15.85939057357454, "alt_km": 35791.30607020581, "timestamp": "2025-12-02T19:35:50.233296+00:00", "meta": {"OBJECT_NAME": "EUTELSAT 10B", "OBJECT_ID": "2022-157A", "EPOCH": "2025-12-02T08:41:46.771296", "MEAN_MOTION": 1.00267677, "ECCENTRICITY": 0.0001071, "INCLINATION": 0.0583, "RA_OF_ASC_NODE": 104.7921, "ARG_OF_PERICENTER": 66.8197, "MEAN_ANOMALY": 40.3244, "EPHEMERIS_TYPE": 0, "CLASSIFICATION_TYPE": "U", "NORAD_CAT_ID": 54259, "ELEMENT_SET_NO": 999, "REV_AT_EPOCH": 1105, "BSTAR": 0, "MEAN_MOTION_DOT": 8.9e-07, "MEAN_MOTION_DDOT": 0}, "tle": {"line1": "1 54259U 22157A   25336.36234689  .00000089  00000+0  00000+0 0  9997", "line2": "2 54259   0.0583 104.7921 0001071  66.8197  40.3244  1.00267677 11053"}}, "geometry": {"type": "Point", "coordinates": [15.85939057357454, -0.029089399736438835]}}, {"type": "Feature", "properties": {"norad_id": 59346, "name": "EUTELSAT 36D", "group": "eutelsat", "lat": 0.03625931815114789, "lon": 41.7325288978611, "alt_km": 35787.11362117919, "timestamp": "2025-12-02T19:35:50.233307+00:00", "meta": {"OBJECT_NAME": "EUTELSAT 36D", "OBJECT_ID": "2024-059A", "EPOCH": "2025-12-02T06:56:38.709888", "MEAN_MOTION": 1.00269594, "ECCENTRICITY": 4.64e-05, "INCLINATION": 0.0132, "RA_OF_ASC_NODE": 300.2901, "ARG_OF_PERICENTER": 357.134, "MEAN_ANOMALY": 274.017, "EPHEMERIS_TYPE": 0, "CLASSIFICATION_TYPE": "U", "NORAD_CAT_ID": 59346, "ELEMENT_SET_NO": 999, "REV_AT_EPOCH": 617, "BSTAR": 0, "MEAN_MOTION_DOT": 1.77e-06, "MEAN_MOTION_DDOT": 0}, "tle": {"line1": "1 59346U 24059A   25336.28933692  .00000177  00000+0  00000+0 0  9991", "line2": "2 59346   0.0132 300.2901 0000464 357.1340 274.0170  1.00269594  6178"}}, "geometry": {"type": "Point", "coordinates": [41.7325288978611, 0.03625931815114789]}}]}